CCSDS_OMM_VERS = 2.0
CREATION_DATE  = 
ORIGINATOR     = 

OBJECT_NAME    = STARLINK-35515
OBJECT_ID      = 2025-263D
CENTER_NAME    = EARTH
REF_FRAME      = TEME
TIME_SYSTEM    = UTC
MEAN_ELEMENT_THEORY = SGP/SGP4

EPOCH          = 2025-11-21T16:00:05.000256
MEAN_MOTION    = 16.00923866
ECCENTRICITY   = .0002142
INCLINATION    = 43.0008
RA_OF_ASC_NODE = 252.5984
ARG_OF_PERICENTER = 258.7674
MEAN_ANOMALY   = 77.9315

EPHEMERIS_TYPE = 0
CLASSIFICATION_TYPE = U
NORAD_CAT_ID   = 66488
ELEMENT_SET_NO = 999
REV_AT_EPOCH   = 224
BSTAR          = -.1954E-2
MEAN_MOTION_DOT = -.1098175E-1
MEAN_MOTION_DDOT = .39295E-3

CCSDS_OMM_VERS = 2.0
CREATION_DATE  = 
ORIGINATOR     = 

OBJECT_NAME    = STARLINK-35696
OBJECT_ID      = 2025-263E
CENTER_NAME    = EARTH
REF_FRAME      = TEME
TIME_SYSTEM    = UTC
MEAN_ELEMENT_THEORY = SGP/SGP4

EPOCH          = 2025-11-21T16:00:05.000256
MEAN_MOTION    = 16.01015866
ECCENTRICITY   = .0002173
INCLINATION    = 43.0008
RA_OF_ASC_NODE = 252.5944
ARG_OF_PERICENTER = 260.4513
MEAN_ANOMALY   = 77.7736

EPHEMERIS_TYPE = 0
CLASSIFICATION_TYPE = U
NORAD_CAT_ID   = 66489
ELEMENT_SET_NO = 999
REV_AT_EPOCH   = 224
BSTAR          = -.19449E-2
MEAN_MOTION_DOT = -.1098938E-1
MEAN_MOTION_DDOT = .39384E-3

CCSDS_OMM_VERS = 2.0
CREATION_DATE  = 
ORIGINATOR     = 

OBJECT_NAME    = STARLINK-35693
OBJECT_ID      = 2025-263F
CENTER_NAME    = EARTH
REF_FRAME      = TEME
TIME_SYSTEM    = UTC
MEAN_ELEMENT_THEORY = SGP/SGP4

EPOCH          = 2025-11-21T16:00:05.000256
MEAN_MOTION    = 16.01132543
ECCENTRICITY   = .000216
INCLINATION    = 43.0009
RA_OF_ASC_NODE = 252.5898
ARG_OF_PERICENTER = 258.1064
MEAN_ANOMALY   = 81.9379

EPHEMERIS_TYPE = 0
CLASSIFICATION_TYPE = U
NORAD_CAT_ID   = 66490
ELEMENT_SET_NO = 999
REV_AT_EPOCH   = 224
BSTAR          = -.1936E-2
MEAN_MOTION_DOT = -.1101352E-1
MEAN_MOTION_DDOT = .39593E-3

CCSDS_OMM_VERS = 2.0
CREATION_DATE  = 
ORIGINATOR     = 

OBJECT_NAME    = STARLINK-35663
OBJECT_ID      = 2025-263G
CENTER_NAME    = EARTH
REF_FRAME      = TEME
TIME_SYSTEM    = UTC
MEAN_ELEMENT_THEORY = SGP/SGP4

EPOCH          = 2025-11-21T16:00:05.000256
MEAN_MOTION    = 16.01296312
ECCENTRICITY   = .0002129
INCLINATION    = 43.0008
RA_OF_ASC_NODE = 252.5831
ARG_OF_PERICENTER = 259.6641
MEAN_ANOMALY   = 83.0257

EPHEMERIS_TYPE = 0
CLASSIFICATION_TYPE = U
NORAD_CAT_ID   = 66491
ELEMENT_SET_NO = 999
REV_AT_EPOCH   = 224
BSTAR          = -.19332E-2
MEAN_MOTION_DOT = -.11102E-1
MEAN_MOTION_DDOT = .40247E-3

CCSDS_OMM_VERS = 2.0
CREATION_DATE  = 
ORIGINATOR     = 

OBJECT_NAME    = STARLINK-35673
OBJECT_ID      = 2025-263H
CENTER_NAME    = EARTH
REF_FRAME      = TEME
TIME_SYSTEM    = UTC
MEAN_ELEMENT_THEORY = SGP/SGP4

EPOCH          = 2025-11-21T16:00:05.000256
MEAN_MOTION    = 16.01383586
ECCENTRICITY   = .000207
INCLINATION    = 43.0008
RA_OF_ASC_NODE = 252.5795
ARG_OF_PERICENTER = 262.1703
MEAN_ANOMALY   = 81.9399

EPHEMERIS_TYPE = 0
CLASSIFICATION_TYPE = U
NORAD_CAT_ID   = 66492
ELEMENT_SET_NO = 999
REV_AT_EPOCH   = 224
BSTAR          = -.19365E-2
MEAN_MOTION_DOT = -.1117673E-1
MEAN_MOTION_DDOT = .40782E-3

CCSDS_OMM_VERS = 2.0
CREATION_DATE  = 
ORIGINATOR     = 

OBJECT_NAME    = STARLINK-35597
OBJECT_ID      = 2025-263J
CENTER_NAME    = EARTH
REF_FRAME      = TEME
TIME_SYSTEM    = UTC
MEAN_ELEMENT_THEORY = SGP/SGP4

EPOCH          = 2025-11-21T16:00:05.000256
MEAN_MOTION    = 16.01477990
ECCENTRICITY   = .0002151
INCLINATION    = 43.0008
RA_OF_ASC_NODE = 252.5752
ARG_OF_PERICENTER = 257.7784
MEAN_ANOMALY   = 88.0178

EPHEMERIS_TYPE = 0
CLASSIFICATION_TYPE = U
NORAD_CAT_ID   = 66493
ELEMENT_SET_NO = 999
REV_AT_EPOCH   = 224
BSTAR          = -.19097E-2
MEAN_MOTION_DOT = -.1108423E-1
MEAN_MOTION_DDOT = .40209E-3

CCSDS_OMM_VERS = 2.0
CREATION_DATE  = 
ORIGINATOR     = 

OBJECT_NAME    = STARLINK-35689
OBJECT_ID      = 2025-263K
CENTER_NAME    = EARTH
REF_FRAME      = TEME
TIME_SYSTEM    = UTC
MEAN_ELEMENT_THEORY = SGP/SGP4

EPOCH          = 2025-11-21T16:00:05.000256
MEAN_MOTION    = 16.01210608
ECCENTRICITY   = .0002123
INCLINATION    = 43.0009
RA_OF_ASC_NODE = 252.5864
ARG_OF_PERICENTER = 260.4271
MEAN_ANOMALY   = 80.9392

EPHEMERIS_TYPE = 0
CLASSIFICATION_TYPE = U
NORAD_CAT_ID   = 66494
ELEMENT_SET_NO = 999
REV_AT_EPOCH   = 224
BSTAR          = -.19319E-2
MEAN_MOTION_DOT = -.1103981E-1
MEAN_MOTION_DDOT = .39799E-3

CCSDS_OMM_VERS = 2.0
CREATION_DATE  = 
ORIGINATOR     = 

OBJECT_NAME    = STARLINK-35832
OBJECT_ID      = 2025-263L
CENTER_NAME    = EARTH
REF_FRAME      = TEME
TIME_SYSTEM    = UTC
MEAN_ELEMENT_THEORY = SGP/SGP4

EPOCH          = 2025-11-21T16:00:05.000256
MEAN_MOTION    = 16.01608488
ECCENTRICITY   = .0002131
INCLINATION    = 43.0009
RA_OF_ASC_NODE = 252.5702
ARG_OF_PERICENTER = 262.0282
MEAN_ANOMALY   = 85.6833

EPHEMERIS_TYPE = 0
CLASSIFICATION_TYPE = U
NORAD_CAT_ID   = 66495
ELEMENT_SET_NO = 999
REV_AT_EPOCH   = 224
BSTAR          = -.19077E-2
MEAN_MOTION_DOT = -.111566E-1
MEAN_MOTION_DDOT = .40748E-3

CCSDS_OMM_VERS = 2.0
CREATION_DATE  = 
ORIGINATOR     = 

OBJECT_NAME    = STARLINK-35909
OBJECT_ID      = 2025-263M
CENTER_NAME    = EARTH
REF_FRAME      = TEME
TIME_SYSTEM    = UTC
MEAN_ELEMENT_THEORY = SGP/SGP4

EPOCH          = 2025-11-21T16:00:05.000256
MEAN_MOTION    = 16.01721729
ECCENTRICITY   = .0002073
INCLINATION    = 43.0010
RA_OF_ASC_NODE = 252.5659
ARG_OF_PERICENTER = 256.7410
MEAN_ANOMALY   = 92.7016

EPHEMERIS_TYPE = 0
CLASSIFICATION_TYPE = U
NORAD_CAT_ID   = 66496
ELEMENT_SET_NO = 999
REV_AT_EPOCH   = 224
BSTAR          = -.18972E-2
MEAN_MOTION_DOT = -.1116935E-1
MEAN_MOTION_DDOT = .40884E-3

CCSDS_OMM_VERS = 2.0
CREATION_DATE  = 
ORIGINATOR     = 

OBJECT_NAME    = STARLINK-35899
OBJECT_ID      = 2025-263N
CENTER_NAME    = EARTH
REF_FRAME      = TEME
TIME_SYSTEM    = UTC
MEAN_ELEMENT_THEORY = SGP/SGP4

EPOCH          = 2025-11-21T16:00:05.000256
MEAN_MOTION    = 16.01809489
ECCENTRICITY   = .0002211
INCLINATION    = 43.0009
RA_OF_ASC_NODE = 252.5619
ARG_OF_PERICENTER = 260.4521
MEAN_ANOMALY   = 90.5115

EPHEMERIS_TYPE = 0
CLASSIFICATION_TYPE = U
NORAD_CAT_ID   = 66497
ELEMENT_SET_NO = 999
REV_AT_EPOCH   = 224
BSTAR          = -.1877E-2
MEAN_MOTION_DOT = -.111083E-1
MEAN_MOTION_DDOT = .40516E-3

CCSDS_OMM_VERS = 2.0
CREATION_DATE  = 
ORIGINATOR     = 

OBJECT_NAME    = STARLINK-35907
OBJECT_ID      = 2025-263P
CENTER_NAME    = EARTH
REF_FRAME      = TEME
TIME_SYSTEM    = UTC
MEAN_ELEMENT_THEORY = SGP/SGP4

EPOCH          = 2025-11-21T16:00:05.000256
MEAN_MOTION    = 16.01908986
ECCENTRICITY   = .0002186
INCLINATION    = 43.0008
RA_OF_ASC_NODE = 252.5581
ARG_OF_PERICENTER = 257.8153
MEAN_ANOMALY   = 94.7118

EPHEMERIS_TYPE = 0
CLASSIFICATION_TYPE = U
NORAD_CAT_ID   = 66498
ELEMENT_SET_NO = 999
REV_AT_EPOCH   = 224
BSTAR          = -.18709E-2
MEAN_MOTION_DOT = -.1113711E-1
MEAN_MOTION_DDOT = .40753E-3

CCSDS_OMM_VERS = 2.0
CREATION_DATE  = 
ORIGINATOR     = 

OBJECT_NAME    = STARLINK-35816
OBJECT_ID      = 2025-263Q
CENTER_NAME    = EARTH
REF_FRAME      = TEME
TIME_SYSTEM    = UTC
MEAN_ELEMENT_THEORY = SGP/SGP4

EPOCH          = 2025-11-21T16:00:05.000256
MEAN_MOTION    = 16.02090325
ECCENTRICITY   = .0002121
INCLINATION    = 43.0009
RA_OF_ASC_NODE = 252.5509
ARG_OF_PERICENTER = 258.7988
MEAN_ANOMALY   = 96.5510

EPHEMERIS_TYPE = 0
CLASSIFICATION_TYPE = U
NORAD_CAT_ID   = 66499
ELEMENT_SET_NO = 999
REV_AT_EPOCH   = 224
BSTAR          = -.18708E-2
MEAN_MOTION_DOT = -.1125418E-1
MEAN_MOTION_DDOT = .41621E-3

