STARLINK-35515          
1 66488U 25263D   25325.66672454 -.01098175  39295-3 -19540-2 0  9992
2 66488  43.0008 252.5984 0002142 258.7674  77.9315 16.00923866  2243
STARLINK-35696          
1 66489U 25263E   25325.66672454 -.01098938  39384-3 -19449-2 0  9997
2 66489  43.0008 252.5944 0002173 260.4513  77.7736 16.01015866  2244
STARLINK-35693          
1 66490U 25263F   25325.66672454 -.01101352  39593-3 -19360-2 0  9998
2 66490  43.0009 252.5898 0002160 258.1064  81.9379 16.01132543  2248
STARLINK-35663          
1 66491U 25263G   25325.66672454 -.01110200  40247-3 -19332-2 0  9998
2 66491  43.0008 252.5831 0002129 259.6641  83.0257 16.01296312  2240
STARLINK-35673          
1 66492U 25263H   25325.66672454 -.01117673  40782-3 -19365-2 0  9990
2 66492  43.0008 252.5795 0002070 262.1703  81.9399 16.01383586  2247
STARLINK-35597          
1 66493U 25263J   25325.66672454 -.01108423  40209-3 -19097-2 0  9990
2 66493  43.0008 252.5752 0002151 257.7784  88.0178 16.01477990  2246
STARLINK-35689          
1 66494U 25263K   25325.66672454 -.01103981  39799-3 -19319-2 0  9994
2 66494  43.0009 252.5864 0002123 260.4271  80.9392 16.01210608  2243
STARLINK-35832          
1 66495U 25263L   25325.66672454 -.01115660  40748-3 -19077-2 0  9999
2 66495  43.0009 252.5702 0002131 262.0282  85.6833 16.01608488  2243
STARLINK-35909          
1 66496U 25263M   25325.66672454 -.01116935  40884-3 -18972-2 0  9990
2 66496  43.0010 252.5659 0002073 256.7410  92.7016 16.01721729  2241
STARLINK-35899          
1 66497U 25263N   25325.66672454 -.01110830  40516-3 -18770-2 0  9997
2 66497  43.0009 252.5619 0002211 260.4521  90.5115 16.01809489  2241
STARLINK-35907          
1 66498U 25263P   25325.66672454 -.01113711  40753-3 -18709-2 0  9994
2 66498  43.0008 252.5581 0002186 257.8153  94.7118 16.01908986  2242
STARLINK-35816          
1 66499U 25263Q   25325.66672454 -.01125418  41621-3 -18708-2 0  9996
2 66499  43.0009 252.5509 0002121 258.7988  96.5510 16.02090325  2245
